[{"OBJECT_NAME":"TRANSPORTER-15 OBJECT CN","OBJECT_ID":"2025-276CN","EPOCH":"2026-03-09T04:35:33.344160","MEAN_MOTION":15.18977527,"ECCENTRICITY":5.071e-5,"INCLINATION":97.4304,"RA_OF_ASC_NODE":143.5648,"ARG_OF_PERICENTER":336.0158,"MEAN_ANOMALY":24.1053,"EPHEMERIS_TYPE":0,"CLASSIFICATION_TYPE":"U","NORAD_CAT_ID":66750,"ELEMENT_SET_NO":999,"REV_AT_EPOCH":1524,"BSTAR":0.00028330364,"MEAN_MOTION_DOT":5.857e-5,"MEAN_MOTION_DDOT":0},{"OBJECT_NAME":"MAUVE","OBJECT_ID":"2025-276CU","EPOCH":"2026-03-09T17:14:44.951712","MEAN_MOTION":15.19228326,"ECCENTRICITY":5.768e-5,"INCLINATION":97.4273,"RA_OF_ASC_NODE":144.0489,"ARG_OF_PERICENTER":359.247,"MEAN_ANOMALY":0.8764,"EPHEMERIS_TYPE":0,"CLASSIFICATION_TYPE":"U","NORAD_CAT_ID":66756,"ELEMENT_SET_NO":999,"REV_AT_EPOCH":1532,"BSTAR":0.00039937228,"MEAN_MOTION_DOT":8.348e-5,"MEAN_MOTION_DDOT":0}]
